ONEWEB-0195             
1 48240U 21031AG  23227.25838587  .00000033  00000+0  54478-4 0  9994
2 48240  87.9048 136.0884 0002391  79.5685 280.5714 13.14504946111929
ONEWEB-0201             
1 48241U 21031AH  23228.01533044 -.00000036  00000+0 -13254-3 0  9991
2 48241  87.9047 135.9780 0002083  76.1714 283.9647 13.14505335112258
ONEWEB-0207             
1 48242U 21031AJ  23227.00044314 -.00000144  00000+0 -42269-3 0  9995
2 48242  87.9048 136.1465 0002014  70.4260 289.7087 13.14504544112039
ONEWEB-0208             
1 48243U 21031AK  23227.73942596  .00000424  00000+0  11083-2 0  9993
2 48243  87.9047 136.0178 0002274  80.4004 279.7383 13.14502514112149
ONEWEB-0200             
1 48244U 21031AL  23227.01839989 -.00000013  00000+0 -69480-4 0  9998
2 48244  87.9043 136.1487 0002355  80.0426 280.0970 13.14505555111980
ONEWEB-0217             
1 48245U 21031AM  23227.03531154  .00000140  00000+0  34199-3 0  9991
2 48245  87.9046 136.1291 0002380  82.4148 277.7252 13.14505763111934
ONEWEB-0211             
1 48767U 21045A   23227.58655696  .00000098  00000+0  22715-3 0  9996
2 48767  87.8988 105.6037 0001909  81.5870 278.5476 13.15547046109254
ONEWEB-0223             
1 48768U 21045B   23227.15132718 -.00000086  00000+0 -26368-3 0  9992
2 48768  87.8987 105.6957 0002055  93.0722 267.0643 13.15547977109197
